start=new Date('2022-05-31T00:00:00.000Z').valueOf();
sats=[{"EPOCH":"2022-05-30T22:00:00.999936","PERIOD":"91.531","ECCENTRICITY":"0.00018100","RA_OF_ASC_NODE":"236.0267","NORAD_CAT_ID":"52694","MEAN_ELEMENT_THEORY":"SGP4","MEAN_MOTION_DDOT":"0.0000000000000","MEAN_ANOMALY":"0.3597","ELEMENT_SET_NO":"999","OBJECT_TYPE":"PAYLOAD","LAUNCH_DATE":"2022-05-18","TIME_SYSTEM":"UTC","APOAPSIS":"350.849","COUNTRY_CODE":"US","INCLINATION":"53.2149","EPHEMERIS_TYPE":"0","RCS_SIZE":null,"CLASSIFICATION_TYPE":"U","SITE":"AFETR","TLE_LINE1":"1 52694U 22053AQ  22150.91667824 -.00062810  00000-0 -44555-3 0  9996","PERIAPSIS":"348.414","TLE_LINE2":"2 52694  53.2149 236.0267 0001810  19.7751   0.3597 15.73245184  1306","BSTAR":"-0.00044555000000","OBJECT_NAME":"STARLINK-4072","OBJECT_ID":"2022-053AQ","GP_ID":"204981183","REF_FRAME":"TEME","MEAN_MOTION_DOT":"-0.00062810","REV_AT_EPOCH":"130","DECAY_DATE":null,"FILE":"3472994","CENTER_NAME":"EARTH","ARG_OF_PERICENTER":"19.7751","MEAN_MOTION":"15.73245184","SEMIMAJOR_AXIS":"6727.766"},{"EPOCH":"2022-05-30T22:00:00.999936","PERIOD":"91.531","MEAN_MOTION_DDOT":"0.0000000000000","MEAN_ELEMENT_THEORY":"SGP4","ECCENTRICITY":"0.00019590","RA_OF_ASC_NODE":"236.0183","NORAD_CAT_ID":"52695","EPHEMERIS_TYPE":"0","RCS_SIZE":null,"ELEMENT_SET_NO":"999","MEAN_ANOMALY":"357.4106","OBJECT_TYPE":"PAYLOAD","LAUNCH_DATE":"2022-05-18","TIME_SYSTEM":"UTC","APOAPSIS":"350.978","INCLINATION":"53.2146","COUNTRY_CODE":"US","CLASSIFICATION_TYPE":"U","SITE":"AFETR","TLE_LINE1":"1 52695U 22053AR  22150.91667824 -.00058829  00000-0 -41700-3 0  9991","PERIAPSIS":"348.342","OBJECT_NAME":"STARLINK-4041","OBJECT_ID":"2022-053AR","TLE_LINE2":"2 52695  53.2146 236.0183 0001959  26.3539 357.4106 15.73235118  1301","BSTAR":"-0.00041700000000","MEAN_MOTION_DOT":"-0.00058829","REV_AT_EPOCH":"130","DECAY_DATE":null,"GP_ID":"204981388","REF_FRAME":"TEME","CENTER_NAME":"EARTH","FILE":"3472994","MEAN_MOTION":"15.73235118","SEMIMAJOR_AXIS":"6727.795","ARG_OF_PERICENTER":"26.3539"},{"RA_OF_ASC_NODE":"236.0225","NORAD_CAT_ID":"52696","ECCENTRICITY":"0.00019290","MEAN_MOTION_DDOT":"0.0000000000000","MEAN_ELEMENT_THEORY":"SGP4","EPOCH":"2022-05-30T22:00:00.999936","PERIOD":"91.531","TLE_LINE1":"1 52696U 22053AS  22150.91667824 -.00076392  00000-0 -54372-3 0  9996","PERIAPSIS":"348.334","CLASSIFICATION_TYPE":"U","SITE":"AFETR","TIME_SYSTEM":"UTC","APOAPSIS":"350.929","INCLINATION":"53.2148","COUNTRY_CODE":"US","MEAN_ANOMALY":"353.8457","ELEMENT_SET_NO":"999","LAUNCH_DATE":"2022-05-18","OBJECT_TYPE":"PAYLOAD","RCS_SIZE":null,"EPHEMERIS_TYPE":"0","REF_FRAME":"TEME","GP_ID":"204981083","REV_AT_EPOCH":"130","DECAY_DATE":null,"MEAN_MOTION_DOT":"-0.00076392","BSTAR":"-0.00054372000000","TLE_LINE2":"2 52696  53.2148 236.0225 0001929  28.1504 353.8457 15.73245127  1300","OBJECT_ID":"2022-053AS","OBJECT_NAME":"STARLINK-4025","ARG_OF_PERICENTER":"28.1504","SEMIMAJOR_AXIS":"6727.767","MEAN_MOTION":"15.73245127","FILE":"3472994","CENTER_NAME":"EARTH"},{"TLE_LINE2":"2 52697  53.2145 236.0161 0001718  27.2440 357.6216 15.73245103  1301","BSTAR":"-0.00004143000000","OBJECT_ID":"2022-053AT","OBJECT_NAME":"STARLINK-4018","GP_ID":"204981287","REF_FRAME":"TEME","REV_AT_EPOCH":"130","DECAY_DATE":null,"MEAN_MOTION_DOT":"-0.00006442","FILE":"3472994","CENTER_NAME":"EARTH","ARG_OF_PERICENTER":"27.2440","SEMIMAJOR_AXIS":"6727.767","MEAN_MOTION":"15.73245103","EPOCH":"2022-05-30T22:00:00.999936","PERIOD":"91.531","RA_OF_ASC_NODE":"236.0161","NORAD_CAT_ID":"52697","ECCENTRICITY":"0.00017180","MEAN_ELEMENT_THEORY":"SGP4","MEAN_MOTION_DDOT":"0.0000000000000","TIME_SYSTEM":"UTC","APOAPSIS":"350.787","COUNTRY_CODE":"US","INCLINATION":"53.2145","ELEMENT_SET_NO":"999","MEAN_ANOMALY":"357.6216","OBJECT_TYPE":"PAYLOAD","LAUNCH_DATE":"2022-05-18","RCS_SIZE":null,"EPHEMERIS_TYPE":"0","TLE_LINE1":"1 52697U 22053AT  22150.91667824 -.00006442  00000-0 -41430-4 0  9998","PERIAPSIS":"348.476","SITE":"AFETR","CLASSIFICATION_TYPE":"U"},{"TLE_LINE2":"2 52698  53.2149 236.0202 0001715  29.1831 353.9656 15.73262622  1306","BSTAR":"-0.00040353000000","OBJECT_NAME":"STARLINK-4030","OBJECT_ID":"2022-053AU","REF_FRAME":"TEME","GP_ID":"204980847","MEAN_MOTION_DOT":"-0.00057025","REV_AT_EPOCH":"130","DECAY_DATE":null,"FILE":"3472994","CENTER_NAME":"EARTH","ARG_OF_PERICENTER":"29.1831","MEAN_MOTION":"15.73262622","SEMIMAJOR_AXIS":"6727.717","EPOCH":"2022-05-30T22:00:00.999936","PERIOD":"91.530","ECCENTRICITY":"0.00017150","RA_OF_ASC_NODE":"236.0202","NORAD_CAT_ID":"52698","MEAN_ELEMENT_THEORY":"SGP4","MEAN_MOTION_DDOT":"0.0000000000000","MEAN_ANOMALY":"353.9656","ELEMENT_SET_NO":"999","OBJECT_TYPE":"PAYLOAD","LAUNCH_DATE":"2022-05-18","APOAPSIS":"350.735","TIME_SYSTEM":"UTC","COUNTRY_CODE":"US","INCLINATION":"53.2149","EPHEMERIS_TYPE":"0","RCS_SIZE":null,"SITE":"AFETR","CLASSIFICATION_TYPE":"U","TLE_LINE1":"1 52698U 22053AU  22150.91667824 -.00057025  00000-0 -40353-3 0  9994","PERIAPSIS":"348.428"},{"PERIOD":"91.530","EPOCH":"2022-05-30T22:00:00.999936","ECCENTRICITY":"0.00017470","NORAD_CAT_ID":"52699","RA_OF_ASC_NODE":"236.0131","MEAN_MOTION_DDOT":"0.0000000000000","MEAN_ELEMENT_THEORY":"SGP4","OBJECT_TYPE":"PAYLOAD","LAUNCH_DATE":"2022-05-18","MEAN_ANOMALY":"358.0363","ELEMENT_SET_NO":"999","COUNTRY_CODE":"US","INCLINATION":"53.2145","APOAPSIS":"350.779","TIME_SYSTEM":"UTC","EPHEMERIS_TYPE":"0","RCS_SIZE":null,"SITE":"AFETR","CLASSIFICATION_TYPE":"U","PERIAPSIS":"348.428","TLE_LINE1":"1 52699U 22053AV  22150.91667824 -.00113379  00000-0 -81236-3 0  9995","TLE_LINE2":"2 52699  53.2145 236.0131 0001747  28.1373 358.0363 15.73254910  1301","BSTAR":"-0.00081236000000","OBJECT_NAME":"STARLINK-3987","OBJECT_ID":"2022-053AV","REF_FRAME":"TEME","GP_ID":"204981465","MEAN_MOTION_DOT":"-0.00113379","DECAY_DATE":null,"REV_AT_EPOCH":"130","FILE":"3472994","CENTER_NAME":"EARTH","ARG_OF_PERICENTER":"28.1373","MEAN_MOTION":"15.73254910","SEMIMAJOR_AXIS":"6727.739"},{"NORAD_CAT_ID":"52700","RA_OF_ASC_NODE":"236.0183","ECCENTRICITY":"0.00019820","MEAN_MOTION_DDOT":"0.0000000000000","MEAN_ELEMENT_THEORY":"SGP4","PERIOD":"91.533","EPOCH":"2022-05-30T22:00:00.999936","PERIAPSIS":"348.420","TLE_LINE1":"1 52700U 22053AW  22150.91667824  .00014235  00000-0  10566-3 0  9995","CLASSIFICATION_TYPE":"U","SITE":"AFETR","INCLINATION":"53.2146","COUNTRY_CODE":"US","APOAPSIS":"351.087","TIME_SYSTEM":"UTC","OBJECT_TYPE":"PAYLOAD","LAUNCH_DATE":"2022-05-18","MEAN_ANOMALY":"347.6018","ELEMENT_SET_NO":"999","RCS_SIZE":null,"EPHEMERIS_TYPE":"0","REF_FRAME":"TEME","GP_ID":"204980747","DECAY_DATE":null,"REV_AT_EPOCH":"130","MEAN_MOTION_DOT":"0.00014235","BSTAR":"0.00010566000000","TLE_LINE2":"2 52700  53.2146 236.0183 0001982  36.6932 347.6018 15.73202398  1302","OBJECT_ID":"2022-053AW","OBJECT_NAME":"STARLINK-4034","ARG_OF_PERICENTER":"36.6932","SEMIMAJOR_AXIS":"6727.888","MEAN_MOTION":"15.73202398","FILE":"3472994","CENTER_NAME":"EARTH"},{"MEAN_ELEMENT_THEORY":"SGP4","MEAN_MOTION_DDOT":"0.0000000000000","ECCENTRICITY":"0.00018220","RA_OF_ASC_NODE":"236.0106","NORAD_CAT_ID":"52701","EPOCH":"2022-05-30T22:00:00.999936","PERIOD":"91.534","CLASSIFICATION_TYPE":"U","SITE":"AFETR","TLE_LINE1":"1 52701U 22053AX  22150.91667824 -.00043676  00000-0 -30844-3 0  9990","PERIAPSIS":"348.551","EPHEMERIS_TYPE":"0","RCS_SIZE":null,"ELEMENT_SET_NO":"999","MEAN_ANOMALY":"2.4649","LAUNCH_DATE":"2022-05-18","OBJECT_TYPE":"PAYLOAD","TIME_SYSTEM":"UTC","APOAPSIS":"351.002","INCLINATION":"53.2145","COUNTRY_CODE":"US","MEAN_MOTION_DOT":"-0.00043676","REV_AT_EPOCH":"130","DECAY_DATE":null,"GP_ID":"204980950","REF_FRAME":"TEME","OBJECT_NAME":"STARLINK-4003","OBJECT_ID":"2022-053AX","TLE_LINE2":"2 52701  53.2145 236.0106 0001822  24.8597   2.4649 15.73194270  1301","BSTAR":"-0.00030844000000","MEAN_MOTION":"15.73194270","SEMIMAJOR_AXIS":"6727.912","ARG_OF_PERICENTER":"24.8597","CENTER_NAME":"EARTH","FILE":"3472994"},{"SITE":"AFETR","CLASSIFICATION_TYPE":"U","PERIAPSIS":"348.327","TLE_LINE1":"1 52702U 22053AY  22150.91667824 -.00082761  00000-0 -58934-3 0  9999","LAUNCH_DATE":"2022-05-18","OBJECT_TYPE":"PAYLOAD","ELEMENT_SET_NO":"999","MEAN_ANOMALY":"358.2575","INCLINATION":"53.2147","COUNTRY_CODE":"US","TIME_SYSTEM":"UTC","APOAPSIS":"350.816","EPHEMERIS_TYPE":"0","RCS_SIZE":null,"ECCENTRICITY":"0.00018500","NORAD_CAT_ID":"52702","RA_OF_ASC_NODE":"236.0152","MEAN_ELEMENT_THEORY":"SGP4","MEAN_MOTION_DDOT":"0.0000000000000","PERIOD":"91.529","EPOCH":"2022-05-30T22:00:00.999936","ARG_OF_PERICENTER":"27.2599","MEAN_MOTION":"15.73266173","SEMIMAJOR_AXIS":"6727.707","FILE":"3472994","CENTER_NAME":"EARTH","GP_ID":"204981184","REF_FRAME":"TEME","MEAN_MOTION_DOT":"-0.00082761","DECAY_DATE":null,"REV_AT_EPOCH":"130","BSTAR":"-0.00058934000000","TLE_LINE2":"2 52702  53.2147 236.0152 0001850  27.2599 358.2575 15.73266173  1307","OBJECT_NAME":"STARLINK-4033","OBJECT_ID":"2022-053AY"},{"BSTAR":"0.00003906900000","TLE_LINE2":"2 52703  53.2163 236.0074 0001502  20.5487   8.5858 15.73174249  1306","OBJECT_NAME":"STARLINK-4020","OBJECT_ID":"2022-053AZ","REF_FRAME":"TEME","GP_ID":"204981389","MEAN_MOTION_DOT":"0.00004860","DECAY_DATE":null,"REV_AT_EPOCH":"130","FILE":"3472994","CENTER_NAME":"EARTH","ARG_OF_PERICENTER":"20.5487","MEAN_MOTION":"15.73174249","SEMIMAJOR_AXIS":"6727.969","PERIOD":"91.535","EPOCH":"2022-05-30T22:00:00.999936","ECCENTRICITY":"0.00015020","NORAD_CAT_ID":"52703","RA_OF_ASC_NODE":"236.0074","MEAN_MOTION_DDOT":"0.0000000000000","MEAN_ELEMENT_THEORY":"SGP4","LAUNCH_DATE":"2022-05-18","OBJECT_TYPE":"PAYLOAD","ELEMENT_SET_NO":"999","MEAN_ANOMALY":"8.5858","COUNTRY_CODE":"US","INCLINATION":"53.2163","APOAPSIS":"350.844","TIME_SYSTEM":"UTC","EPHEMERIS_TYPE":"0","RCS_SIZE":null,"SITE":"AFETR","CLASSIFICATION_TYPE":"U","PERIAPSIS":"348.823","TLE_LINE1":"1 52703U 22053AZ  22150.91667824  .00004860  00000-0  39069-4 0  9991"}];
